STARLINK-35694          
1 66389U 25257K   25324.67113171 -.00533340  00000+0 -28861-2 0  9992
2 66389  53.1529  10.4331 0000592 153.3134 206.7919 15.80746085  2940
STARLINK-35665          
1 66390U 25257L   25324.15801181  .00502481  00000+0  21753-2 0  9995
2 66390  53.1524  12.9191 0005178 204.4266 155.6513 15.83025546  2966
STARLINK-35656          
1 66391U 25257M   25324.64301145 -.00665396  00000+0 -28622-2 0  9994
2 66391  53.1530  10.2432 0001340  41.2767 318.8359 15.85884622  3044
STARLINK-35671          
1 66392U 25257N   25324.54381439 -.00549381  00000+0 -29365-2 0  9998
2 66392  53.1526  11.0610 0002254  40.5349 319.5841 15.81041422  2929
STARLINK-35652          
1 66393U 25257P   25324.67070408 -.00573918  00000+0 -31293-2 0  9990
2 66393  53.1531  10.4305 0000523 167.5546 192.5489 15.80685386  2947
STARLINK-35672          
1 66394U 25257Q   25324.54339147 -.00588171  00000+0 -31668-2 0  9998
2 66394  53.1529  11.0584 0000860  19.4683 340.6372 15.80991474  2925
STARLINK-35681          
1 66395U 25257R   25324.73268693 -.00590229  00000+0 -32823-2 0  9998
2 66395  53.1532  10.1044 0000573  46.6339 313.4731 15.80300087  2888
STARLINK-35669          
1 66396U 25257S   25324.73231624 -.00432445  00000+0 -23515-2 0  9996
2 66396  53.1532  10.1018 0001032 217.4270 142.6681 15.80382939  2953
STARLINK-35510          
1 66397U 25257T   25324.73171011 -.00648388  00000+0 -36730-2 0  9998
2 66397  53.1524  10.0974 0002460  29.4753 330.6408 15.80032266  2959
STARLINK-35642          
1 66398U 25257U   25324.35188116 -.00190290  00000+0 -94393-3 0  9995
2 66398  53.1526  11.9955 0002292 333.5974  26.4932 15.81716149  2893
STARLINK-35657          
1 66399U 25257V   25324.60578951 -.01132233  00000+0 -83154-2 0  9990
2 66399  53.1533  10.7359 0003520  37.7004 322.4262 15.75083307  2935
STARLINK-35667          
1 66400U 25257W   25324.66690999 -.00612628  00000+0 -34217-2 0  9992
2 66400  53.1528  10.4045 0000405  83.9380 276.1689 15.80263858  2946
