CCSDS_OMM_VERS = 2.0
CREATION_DATE  = 
ORIGINATOR     = 

OBJECT_NAME    = STARLINK-35694
OBJECT_ID      = 2025-257K
CENTER_NAME    = EARTH
REF_FRAME      = TEME
TIME_SYSTEM    = UTC
MEAN_ELEMENT_THEORY = SGP/SGP4

EPOCH          = 2025-11-20T16:06:25.779744
MEAN_MOTION    = 15.80746085
ECCENTRICITY   = .00005923
INCLINATION    = 53.1529
RA_OF_ASC_NODE = 10.4331
ARG_OF_PERICENTER = 153.3134
MEAN_ANOMALY   = 206.7919

EPHEMERIS_TYPE = 0
CLASSIFICATION_TYPE = U
NORAD_CAT_ID   = 66389
ELEMENT_SET_NO = 999
REV_AT_EPOCH   = 294
BSTAR          = -.28861328E-2
MEAN_MOTION_DOT = -.53334E-2
MEAN_MOTION_DDOT = 0

CCSDS_OMM_VERS = 2.0
CREATION_DATE  = 
ORIGINATOR     = 

OBJECT_NAME    = STARLINK-35665
OBJECT_ID      = 2025-257L
CENTER_NAME    = EARTH
REF_FRAME      = TEME
TIME_SYSTEM    = UTC
MEAN_ELEMENT_THEORY = SGP/SGP4

EPOCH          = 2025-11-20T03:47:32.220384
MEAN_MOTION    = 15.83025546
ECCENTRICITY   = .00051787
INCLINATION    = 53.1524
RA_OF_ASC_NODE = 12.9191
ARG_OF_PERICENTER = 204.4266
MEAN_ANOMALY   = 155.6513

EPHEMERIS_TYPE = 0
CLASSIFICATION_TYPE = U
NORAD_CAT_ID   = 66390
ELEMENT_SET_NO = 999
REV_AT_EPOCH   = 296
BSTAR          = .21752804E-2
MEAN_MOTION_DOT = .502481E-2
MEAN_MOTION_DDOT = 0

CCSDS_OMM_VERS = 2.0
CREATION_DATE  = 
ORIGINATOR     = 

OBJECT_NAME    = STARLINK-35656
OBJECT_ID      = 2025-257M
CENTER_NAME    = EARTH
REF_FRAME      = TEME
TIME_SYSTEM    = UTC
MEAN_ELEMENT_THEORY = SGP/SGP4

EPOCH          = 2025-11-20T15:25:56.189280
MEAN_MOTION    = 15.85884622
ECCENTRICITY   = .00013407
INCLINATION    = 53.1530
RA_OF_ASC_NODE = 10.2432
ARG_OF_PERICENTER = 41.2767
MEAN_ANOMALY   = 318.8359

EPHEMERIS_TYPE = 0
CLASSIFICATION_TYPE = U
NORAD_CAT_ID   = 66391
ELEMENT_SET_NO = 999
REV_AT_EPOCH   = 304
BSTAR          = -.28621967E-2
MEAN_MOTION_DOT = -.665396E-2
MEAN_MOTION_DDOT = 0

CCSDS_OMM_VERS = 2.0
CREATION_DATE  = 
ORIGINATOR     = 

OBJECT_NAME    = STARLINK-35671
OBJECT_ID      = 2025-257N
CENTER_NAME    = EARTH
REF_FRAME      = TEME
TIME_SYSTEM    = UTC
MEAN_ELEMENT_THEORY = SGP/SGP4

EPOCH          = 2025-11-20T13:03:05.563296
MEAN_MOTION    = 15.81041422
ECCENTRICITY   = .00022546
INCLINATION    = 53.1526
RA_OF_ASC_NODE = 11.0610
ARG_OF_PERICENTER = 40.5349
MEAN_ANOMALY   = 319.5841

EPHEMERIS_TYPE = 0
CLASSIFICATION_TYPE = U
NORAD_CAT_ID   = 66392
ELEMENT_SET_NO = 999
REV_AT_EPOCH   = 292
BSTAR          = -.29364527E-2
MEAN_MOTION_DOT = -.549381E-2
MEAN_MOTION_DDOT = 0

CCSDS_OMM_VERS = 2.0
CREATION_DATE  = 
ORIGINATOR     = 

OBJECT_NAME    = STARLINK-35652
OBJECT_ID      = 2025-257P
CENTER_NAME    = EARTH
REF_FRAME      = TEME
TIME_SYSTEM    = UTC
MEAN_ELEMENT_THEORY = SGP/SGP4

EPOCH          = 2025-11-20T16:05:48.832512
MEAN_MOTION    = 15.80685386
ECCENTRICITY   = .00005236
INCLINATION    = 53.1531
RA_OF_ASC_NODE = 10.4305
ARG_OF_PERICENTER = 167.5546
MEAN_ANOMALY   = 192.5489

EPHEMERIS_TYPE = 0
CLASSIFICATION_TYPE = U
NORAD_CAT_ID   = 66393
ELEMENT_SET_NO = 999
REV_AT_EPOCH   = 294
BSTAR          = -.31293172E-2
MEAN_MOTION_DOT = -.573918E-2
MEAN_MOTION_DDOT = 0

CCSDS_OMM_VERS = 2.0
CREATION_DATE  = 
ORIGINATOR     = 

OBJECT_NAME    = STARLINK-35672
OBJECT_ID      = 2025-257Q
CENTER_NAME    = EARTH
REF_FRAME      = TEME
TIME_SYSTEM    = UTC
MEAN_ELEMENT_THEORY = SGP/SGP4

EPOCH          = 2025-11-20T13:02:29.023008
MEAN_MOTION    = 15.80991474
ECCENTRICITY   = .00008609
INCLINATION    = 53.1529
RA_OF_ASC_NODE = 11.0584
ARG_OF_PERICENTER = 19.4683
MEAN_ANOMALY   = 340.6372

EPHEMERIS_TYPE = 0
CLASSIFICATION_TYPE = U
NORAD_CAT_ID   = 66394
ELEMENT_SET_NO = 999
REV_AT_EPOCH   = 292
BSTAR          = -.31667947E-2
MEAN_MOTION_DOT = -.588171E-2
MEAN_MOTION_DDOT = 0

CCSDS_OMM_VERS = 2.0
CREATION_DATE  = 
ORIGINATOR     = 

OBJECT_NAME    = STARLINK-35681
OBJECT_ID      = 2025-257R
CENTER_NAME    = EARTH
REF_FRAME      = TEME
TIME_SYSTEM    = UTC
MEAN_ELEMENT_THEORY = SGP/SGP4

EPOCH          = 2025-11-20T17:35:04.150752
MEAN_MOTION    = 15.80300087
ECCENTRICITY   = .00005736
INCLINATION    = 53.1532
RA_OF_ASC_NODE = 10.1044
ARG_OF_PERICENTER = 46.6339
MEAN_ANOMALY   = 313.4731

EPHEMERIS_TYPE = 0
CLASSIFICATION_TYPE = U
NORAD_CAT_ID   = 66395
ELEMENT_SET_NO = 999
REV_AT_EPOCH   = 288
BSTAR          = -.32822929E-2
MEAN_MOTION_DOT = -.590229E-2
MEAN_MOTION_DDOT = 0

CCSDS_OMM_VERS = 2.0
CREATION_DATE  = 
ORIGINATOR     = 

OBJECT_NAME    = STARLINK-35669
OBJECT_ID      = 2025-257S
CENTER_NAME    = EARTH
REF_FRAME      = TEME
TIME_SYSTEM    = UTC
MEAN_ELEMENT_THEORY = SGP/SGP4

EPOCH          = 2025-11-20T17:34:32.123136
MEAN_MOTION    = 15.80382939
ECCENTRICITY   = .00010328
INCLINATION    = 53.1532
RA_OF_ASC_NODE = 10.1018
ARG_OF_PERICENTER = 217.4270
MEAN_ANOMALY   = 142.6681

EPHEMERIS_TYPE = 0
CLASSIFICATION_TYPE = U
NORAD_CAT_ID   = 66396
ELEMENT_SET_NO = 999
REV_AT_EPOCH   = 295
BSTAR          = -.23514787E-2
MEAN_MOTION_DOT = -.432445E-2
MEAN_MOTION_DDOT = 0

CCSDS_OMM_VERS = 2.0
CREATION_DATE  = 
ORIGINATOR     = 

OBJECT_NAME    = STARLINK-35510
OBJECT_ID      = 2025-257T
CENTER_NAME    = EARTH
REF_FRAME      = TEME
TIME_SYSTEM    = UTC
MEAN_ELEMENT_THEORY = SGP/SGP4

EPOCH          = 2025-11-20T17:33:39.753504
MEAN_MOTION    = 15.80032266
ECCENTRICITY   = .00024602
INCLINATION    = 53.1524
RA_OF_ASC_NODE = 10.0974
ARG_OF_PERICENTER = 29.4753
MEAN_ANOMALY   = 330.6408

EPHEMERIS_TYPE = 0
CLASSIFICATION_TYPE = U
NORAD_CAT_ID   = 66397
ELEMENT_SET_NO = 999
REV_AT_EPOCH   = 295
BSTAR          = -.36729775E-2
MEAN_MOTION_DOT = -.648388E-2
MEAN_MOTION_DDOT = 0

CCSDS_OMM_VERS = 2.0
CREATION_DATE  = 
ORIGINATOR     = 

OBJECT_NAME    = STARLINK-35642
OBJECT_ID      = 2025-257U
CENTER_NAME    = EARTH
REF_FRAME      = TEME
TIME_SYSTEM    = UTC
MEAN_ELEMENT_THEORY = SGP/SGP4

EPOCH          = 2025-11-20T08:26:42.532224
MEAN_MOTION    = 15.81716149
ECCENTRICITY   = .00022922
INCLINATION    = 53.1526
RA_OF_ASC_NODE = 11.9955
ARG_OF_PERICENTER = 333.5974
MEAN_ANOMALY   = 26.4932

EPHEMERIS_TYPE = 0
CLASSIFICATION_TYPE = U
NORAD_CAT_ID   = 66398
ELEMENT_SET_NO = 999
REV_AT_EPOCH   = 289
BSTAR          = -.94392871E-3
MEAN_MOTION_DOT = -.19029E-2
MEAN_MOTION_DDOT = 0

CCSDS_OMM_VERS = 2.0
CREATION_DATE  = 
ORIGINATOR     = 

OBJECT_NAME    = STARLINK-35657
OBJECT_ID      = 2025-257V
CENTER_NAME    = EARTH
REF_FRAME      = TEME
TIME_SYSTEM    = UTC
MEAN_ELEMENT_THEORY = SGP/SGP4

EPOCH          = 2025-11-20T14:32:20.213664
MEAN_MOTION    = 15.75083307
ECCENTRICITY   = .00035208
INCLINATION    = 53.1533
RA_OF_ASC_NODE = 10.7359
ARG_OF_PERICENTER = 37.7004
MEAN_ANOMALY   = 322.4262

EPHEMERIS_TYPE = 0
CLASSIFICATION_TYPE = U
NORAD_CAT_ID   = 66399
ELEMENT_SET_NO = 999
REV_AT_EPOCH   = 293
BSTAR          = -.83154122E-2
MEAN_MOTION_DOT = -.1132233E-1
MEAN_MOTION_DDOT = 0

CCSDS_OMM_VERS = 2.0
CREATION_DATE  = 
ORIGINATOR     = 

OBJECT_NAME    = STARLINK-35667
OBJECT_ID      = 2025-257W
CENTER_NAME    = EARTH
REF_FRAME      = TEME
TIME_SYSTEM    = UTC
MEAN_ELEMENT_THEORY = SGP/SGP4

EPOCH          = 2025-11-20T16:00:21.023136
MEAN_MOTION    = 15.80263858
ECCENTRICITY   = .00004058
INCLINATION    = 53.1528
RA_OF_ASC_NODE = 10.4045
ARG_OF_PERICENTER = 83.9380
MEAN_ANOMALY   = 276.1689

EPHEMERIS_TYPE = 0
CLASSIFICATION_TYPE = U
NORAD_CAT_ID   = 66400
ELEMENT_SET_NO = 999
REV_AT_EPOCH   = 294
BSTAR          = -.34216531E-2
MEAN_MOTION_DOT = -.612628E-2
MEAN_MOTION_DDOT = 0

